OBJECT_NAME,OBJECT_ID,EPOCH,MEAN_MOTION,ECCENTRICITY,INCLINATION,RA_OF_ASC_NODE,ARG_OF_PERICENTER,MEAN_ANOMALY,EPHEMERIS_TYPE,CLASSIFICATION_TYPE,NORAD_CAT_ID,ELEMENT_SET_NO,REV_AT_EPOCH,BSTAR,MEAN_MOTION_DOT,MEAN_MOTION_DDOT
STARLINK-36628,2026-018G,2026-06-14T10:53:56.520096,15.33449906,.0000747,97.2852,230.2936,105.1986,254.9340,0,U,67595,999,2216,.68576E-3,.22132E-3,0
STARLINK-36629,2026-018H,2026-06-14T11:05:41.252928,15.33450347,.0000349,97.2842,230.2803,29.4502,330.6760,0,U,67596,999,2216,.82822E-3,.26762E-3,0
STARLINK-36384,2026-018J,2026-06-14T10:06:57.479040,15.33436377,.0000343,97.2854,230.3395,59.5990,300.5286,0,U,67597,999,2216,.57677E-3,.18586E-3,0
STARLINK-36358,2026-018K,2026-06-14T10:57:51.448608,15.33446352,.0000576,97.2869,230.2887,117.0486,243.0815,0,U,67598,999,2216,.52313E-3,.16852E-3,0
STARLINK-36582,2026-018L,2026-06-14T10:34:21.899136,15.33442922,.0000551,97.2839,230.3117,79.3255,280.8049,0,U,67599,999,2221,.67579E-3,.21803E-3,0
STARLINK-36640,2026-018M,2026-06-14T11:01:46.104096,15.33456943,.0000741,97.2858,230.2867,88.1761,271.9567,0,U,67600,999,2216,.88859E-3,.28732E-3,0
STARLINK-36635,2026-018N,2026-06-14T03:58:54.971328,15.33437011,.00003904,97.2848,230.0741,71.6917,288.4368,0,U,67601,999,2212,.91376653E-3,.29532E-3,0
STARLINK-36631,2026-018P,2026-06-14T10:03:02.718144,15.33437242,.0000782,97.2850,230.3437,85.7061,274.4271,0,U,67602,999,2216,.72136E-3,.23279E-3,0
STARLINK-36626,2026-018Q,2026-06-14T10:26:32.152704,15.33432847,.0000154,97.2853,230.3196,116.0947,244.0311,0,U,67603,999,2216,.58226E-3,.18762E-3,0
STARLINK-36605,2026-018R,2026-06-14T10:50:01.743648,15.33439908,.000083,97.2868,230.2976,92.7298,267.4040,0,U,67604,999,2216,.54831E-3,.17665E-3,0
STARLINK-36281,2026-018S,2026-06-14T03:27:35.550144,15.33417295,.00002918,97.2849,229.9522,83.7687,276.3589,0,U,67605,999,2211,.87181364E-3,.28151E-3,0
STARLINK-35843,2026-018T,2026-06-14T10:42:11.888352,15.33440356,.0000833,97.2861,230.3057,83.2076,276.9261,0,U,67606,999,2216,.55724E-3,.17955E-3,0
STARLINK-36351,2026-018U,2026-06-14T10:22:37.147296,15.33420444,.0000255,97.2847,230.3245,34.8459,325.2800,0,U,67607,999,2216,.65334E-3,.2106E-3,0
STARLINK-36411,2026-018V,2026-06-14T03:31:30.953856,15.33457125,.000065,97.2846,229.9482,130.5780,229.5519,0,U,67608,999,2211,.9568362E-3,.30953E-3,0
STARLINK-36312,2026-018W,2026-06-14T11:52:38.047584,15.33486634,.0001033,97.2880,230.3948,244.3777,115.7359,0,U,67609,999,2217,.78157E-3,.25275E-3,0
STARLINK-36387,2026-018X,2026-06-14T04:10:38.885088,15.75241769,.00014899,97.2844,235.8657,77.5013,282.6419,0,U,67610,999,2250,.72641439E-3,.10987E-2,0
STARLINK-36636,2026-018Y,2026-06-14T11:29:10.961376,15.33433714,.0000493,97.2850,230.2623,231.7197,128.4001,0,U,67611,999,2216,.60888E-3,.19626E-3,0
STARLINK-36407,2026-018Z,2026-06-14T10:10:51.540960,15.33452019,.0000605,97.2860,230.3369,106.1354,253.9955,0,U,67612,999,2221,.62789E-3,.20254E-3,0
STARLINK-36597,2026-018AA,2026-06-14T03:19:45.851232,15.33434029,.00004907,97.2852,229.9589,244.0030,116.1162,0,U,67613,999,2211,.77101948E-3,.2489E-3,0
STARLINK-36548,2026-020A,2026-06-13T16:48:02.688768,15.27580602,.00004143,42.9973,317.8773,121.6673,238.4219,0,U,67617,999,2079,.74116723E-3,.2019E-3,0
STARLINK-36601,2026-020B,2026-06-14T03:26:47.195520,15.27586121,.00006663,43.0021,315.1688,288.0448,72.0331,0,U,67618,999,2086,.85560577E-3,.23361E-3,0
STARLINK-36119,2026-020C,2026-06-13T16:38:49.180128,15.27592556,.00011736,43.0022,317.8260,256.9556,103.1164,0,U,67619,999,2079,.11903372E-2,.32651E-3,0
STARLINK-36607,2026-020D,2026-06-14T02:36:48.994560,15.27591617,.00006991,43.0028,314.9024,215.5260,144.5545,0,U,67620,999,2086,.6778524E-3,.18444E-3,0
STARLINK-36615,2026-020E,2026-06-13T16:51:44.642592,15.27535045,.00018295,43.0005,317.8767,275.9339,84.1304,0,U,67621,999,2079,.94786141E-3,.25877E-3,0
STARLINK-36614,2026-020F,2026-06-14T03:23:03.983712,15.27593419,.00037711,43.0009,315.1601,265.3611,94.6810,0,U,67622,999,2086,.97845643E-3,.26775E-3,0
STARLINK-36600,2026-020G,2026-06-14T03:32:19.931424,15.27594859,.00019266,43.0029,315.2156,280.8864,79.1771,0,U,67623,999,2086,.60862475E-3,.16531E-3,0
STARLINK-36439,2026-020H,2026-06-14T03:08:16.068192,15.27582866,.00029908,43.0049,315.0870,267.6302,92.4207,0,U,67624,999,2086,.65214703E-3,.17729E-3,0
STARLINK-36438,2026-020J,2026-06-13T03:47:01.120704,15.27567294,.00023581,43.0042,320.6797,261.2649,98.7936,0,U,67625,999,2071,.67174805E-3,.18262E-3,0
STARLINK-36436,2026-020K,2026-06-14T02:47:54.744576,15.27596011,.0002293,42.9902,314.9629,271.8412,88.2177,0,U,67626,999,2086,.58137024E-3,.15779E-3,0
STARLINK-36502,2026-020L,2026-06-14T03:02:43.490400,15.27582195,.00014866,43.0027,315.0566,262.7221,97.3461,0,U,67627,999,2086,.6884883E-3,.18733E-3,0
