STARLINK-36628          
1 67595U 26018G   26165.45412639  .00022132  00000+0  68576-3 0  9997
2 67595  97.2852 230.2936 0000747 105.1986 254.9340 15.33449906 22162
STARLINK-36629          
1 67596U 26018H   26165.46228302  .00026762  00000+0  82822-3 0  9994
2 67596  97.2842 230.2803 0000349  29.4502 330.6760 15.33450347 22164
STARLINK-36384          
1 67597U 26018J   26165.42149860  .00018586  00000+0  57677-3 0  9997
2 67597  97.2854 230.3395 0000343  59.5990 300.5286 15.33436377 22160
STARLINK-36358          
1 67598U 26018K   26165.45684547  .00016852  00000+0  52313-3 0  9993
2 67598  97.2869 230.2887 0000576 117.0486 243.0815 15.33446352 22163
STARLINK-36582          
1 67599U 26018L   26165.44053124  .00021803  00000+0  67579-3 0  9996
2 67599  97.2839 230.3117 0000551  79.3255 280.8049 15.33442922 22218
STARLINK-36640          
1 67600U 26018M   26165.45956139  .00028732  00000+0  88859-3 0  9990
2 67600  97.2858 230.2867 0000741  88.1761 271.9567 15.33456943 22162
STARLINK-36635          
1 67601U 26018N   26165.16591402  .00029532  00000+0  91377-3 0  9995
2 67601  97.2848 230.0741 0000390  71.6917 288.4368 15.33437011 22124
STARLINK-36631          
1 67602U 26018P   26165.41878146  .00023279  00000+0  72136-3 0  9991
2 67602  97.2850 230.3437 0000782  85.7061 274.4271 15.33437242 22162
STARLINK-36626          
1 67603U 26018Q   26165.43509436  .00018762  00000+0  58226-3 0  9992
2 67603  97.2853 230.3196 0000154 116.0947 244.0311 15.33432847 22166
STARLINK-36605          
1 67604U 26018R   26165.45140907  .00017665  00000+0  54831-3 0  9998
2 67604  97.2868 230.2976 0000830  92.7298 267.4040 15.33439908 22161
STARLINK-36281          
1 67605U 26018S   26165.14416146  .00028151  00000+0  87181-3 0  9992
2 67605  97.2849 229.9522 0000291  83.7687 276.3589 15.33417295 22113
STARLINK-35843          
1 67606U 26018T   26165.44597093  .00017955  00000+0  55724-3 0  9995
2 67606  97.2861 230.3057 0000833  83.2076 276.9261 15.33440356 22168
STARLINK-36351          
1 67607U 26018U   26165.43237439  .00021060  00000+0  65334-3 0  9990
2 67607  97.2847 230.3245 0000255  34.8459 325.2800 15.33420444 22160
STARLINK-36411          
1 67608U 26018V   26165.14688604  .00030953  00000+0  95684-3 0  9995
2 67608  97.2846 229.9482 0000650 130.5780 229.5519 15.33457125 22111
STARLINK-36312          
1 67609U 26018W   26165.49488481  .00025275  00000+0  78157-3 0  9992
2 67609  97.2880 230.3948 0001033 244.3777 115.7359 15.33486634 22170
STARLINK-36387          
1 67610U 26018X   26165.17406117  .00109870  00000+0  72641-3 0  9991
2 67610  97.2844 235.8657 0001489  77.5013 282.6419 15.75241769 22505
STARLINK-36636          
1 67611U 26018Y   26165.47859909  .00019626  00000+0  60888-3 0  9995
2 67611  97.2850 230.2623 0000493 231.7197 128.4001 15.33433714 22169
STARLINK-36407          
1 67612U 26018Z   26165.42420765  .00020254  00000+0  62789-3 0  9996
2 67612  97.2860 230.3369 0000605 106.1354 253.9955 15.33452019 22211
STARLINK-36597          
1 67613U 26018AA  26165.13872513  .00024890  00000+0  77102-3 0  9992
2 67613  97.2852 229.9589 0000490 244.0030 116.1162 15.33434029 22116
STARLINK-36548          
1 67617U 26020A   26164.70003112  .00020190  00000+0  74117-3 0  9994
2 67617  42.9973 317.8773 0000414 121.6673 238.4219 15.27580602 20797
STARLINK-36601          
1 67618U 26020B   26165.14360180  .00023361  00000+0  85561-3 0  9993
2 67618  43.0021 315.1688 0000666 288.0448  72.0331 15.27586121 20864
STARLINK-36119          
1 67619U 26020C   26164.69362477  .00032651  00000+0  11903-2 0  9994
2 67619  43.0022 317.8260 0001173 256.9556 103.1164 15.27592556 20790
STARLINK-36607          
1 67620U 26020D   26165.10890040  .00018444  00000+0  67785-3 0  9999
2 67620  43.0028 314.9024 0000699 215.5260 144.5545 15.27591617 20866
STARLINK-36615          
1 67621U 26020E   26164.70260003  .00025877  00000+0  94786-3 0  9994
2 67621  43.0005 317.8767 0001829 275.9339  84.1304 15.27535045 20798
STARLINK-36614          
1 67622U 26020F   26165.14101833  .00026775  00000+0  97846-3 0  9997
2 67622  43.0009 315.1601 0003771 265.3611  94.6810 15.27593419 20860
STARLINK-36600          
1 67623U 26020G   26165.14745291  .00016531  00000+0  60862-3 0  9997
2 67623  43.0029 315.2156 0001926 280.8864  79.1771 15.27594859 20864
STARLINK-36439          
1 67624U 26020H   26165.13074153  .00017729  00000+0  65215-3 0  9996
2 67624  43.0049 315.0870 0002990 267.6302  92.4207 15.27582866 20867
STARLINK-36438          
1 67625U 26020J   26164.15765186  .00018262  00000+0  67175-3 0  9991
2 67625  43.0042 320.6797 0002358 261.2649  98.7936 15.27567294 20713
STARLINK-36436          
1 67626U 26020K   26165.11660584  .00015779  00000+0  58137-3 0  9993
2 67626  42.9902 314.9629 0002293 271.8412  88.2177 15.27596011 20866
STARLINK-36502          
1 67627U 26020L   26165.12689225  .00018733  00000+0  68849-3 0  9992
2 67627  43.0027 315.0566 0001486 262.7221  97.3461 15.27582195 20864
